NORAD_CAT_ID,OBJECT_NAME,OBJECT_TYPE,EPOCH,MEAN_MOTION,ECCENTRICITY,INCLINATION,RA_OF_ASC_NODE,ARG_OF_PERICENTER,MEAN_ANOMALY,BSTAR,MEAN_MOTION_DOT,MEAN_MOTION_DDOT,TLE_LINE0,TLE_LINE1,TLE_LINE2,SEMIMAJOR_AXIS,PERIOD,APOGEE,PERIGEE,DECAYED
52491.0,STARLINK-3908,PAYLOAD,2022-08-12 22:00:01,15.08842304,0.0001655,53.2169,146.4617,53.0393,6.3445,-0.0012897,-0.00020756,0.0,0 STARLINK-3908,1 52491U 22049AS  22224.91668981 -.00020756  00000-0 -12897-2 0  9999,2 52491  53.2169 146.4617 0001655  53.0393   6.3445 15.08842304  1309,6917.873000000001,95.437,540.883,538.5930000000002,0.0
52491.0,STARLINK-3908,PAYLOAD,2022-08-13 14:00:01,15.0882133,0.0001628,53.2169,143.4685,52.3978,30.095,0.0018748,0.0002966,0.0,0 STARLINK-3908,1 52491U 22049AS  22225.58334491  .00029660  00000-0  18748-2 0  9991,2 52491  53.2169 143.4685 0001628  52.3978  30.0950 15.08821330  1303,6917.937,95.439,540.929,538.6759999999998,0.0
52491.0,STARLINK-3908,PAYLOAD,2022-08-13 22:00:00,15.08859477,0.0001702,53.2169,141.9728,52.3756,41.7,-0.0039461999999999,-0.0006257999999999,0.0,0 STARLINK-3908,1 52491U 22049AS  22225.91667824 -.00062580  00000-0 -39462-2 0  9993,2 52491  53.2169 141.9728 0001702  52.3756  41.7000 15.08859477  1309,6917.821,95.436,540.863,538.508,0.0
52491.0,STARLINK-3908,PAYLOAD,2022-08-14 06:00:02,15.08798279,0.0001806,53.217,140.48,44.9808,60.7518,0.0039131999999999,0.00062472,0.0,0 STARLINK-3908,1 52491U 22049AS  22226.25002315  .00062472  00000-0  39132-2 0  9991,2 52491  53.2170 140.4800 0001806  44.9808  60.7518 15.08798279 15779,6918.0080000000025,95.44,541.122,538.624,0.0
52491.0,STARLINK-3908,PAYLOAD,2022-08-14 14:00:01,15.0881451,0.0001638,53.217,138.9794,51.1297,66.1287,0.0025331,0.00040229,0.0,0 STARLINK-3908,1 52491U 22049AS  22226.58334491  .00040229  00000-0  25331-2 0  9992,2 52491  53.2170 138.9794 0001638  51.1297  66.1287 15.08814510  1302,6917.958000000001,95.439,540.956,538.69,0.0
52491.0,STARLINK-3908,PAYLOAD,2022-08-14 22:00:00,15.08859557,0.0001764999999999,53.217,137.4838,51.4977,77.3422,-0.0013504,-0.00021727,0.0,0 STARLINK-3908,1 52491U 22049AS  22226.91667824 -.00021727  00000-0 -13504-2 0  9991,2 52491  53.2170 137.4838 0001765  51.4977  77.3422 15.08859557  1309,6917.821,95.436,540.9069999999998,538.465,0.0
52491.0,STARLINK-3908,PAYLOAD,2022-08-15 00:00:00,15.08852618,0.0001828,53.2169,137.1102,49.3822,172.3613,-0.0010536,-0.00017023,0.0,0 STARLINK-3908,1 52491U 22049AS  22227.00001157 -.00017023  00000-0 -10536-2 0  9999,2 52491  53.2169 137.1102 0001828  49.3822 172.3613 15.08852618 15880,6917.842,95.437,540.971,538.442,0.0
52491.0,STARLINK-3908,PAYLOAD,2022-08-15 14:00:01,15.088099599999998,0.0001636,53.2171,134.4901,50.1632,101.889,0.0026938,0.00042809,0.0,0 STARLINK-3908,1 52491U 22049AS  22227.58334491  .00042809  00000-0  26938-2 0  9993,2 52491  53.2171 134.4901 0001636  50.1632 101.8890 15.08809960  1304,6917.972,95.439,540.969,538.705,0.0
52491.0,STARLINK-3908,PAYLOAD,2022-08-15 22:00:00,15.08851005,0.0001766,53.2172,132.9947,50.202,113.425,-0.0013732999999999,-0.00022084,0.0,0 STARLINK-3908,1 52491U 22049AS  22227.91667824 -.00022084  00000-0 -13733-2 0  9993,2 52491  53.2172 132.9947 0001766  50.2020 113.4250 15.08851005  1300,6917.847,95.437,540.933,538.49,0.0
52491.0,STARLINK-3908,PAYLOAD,2022-08-16 06:00:02,15.0884326,0.0001848,53.2169,131.4989,45.32899999999999,129.9598,0.00059725,9.231e-05,0.0,0 STARLINK-3908,1 52491U 22049AS  22228.25002315  .00009231  00000-0  59725-3 0  9998,2 52491  53.2169 131.4989 0001848  45.3290 129.9598 15.08843260 16072,6917.87,95.437,541.014,538.457,0.0
52491.0,STARLINK-3908,PAYLOAD,2022-08-16 14:00:01,15.08816256,0.0001606,53.217,130.0008,50.1933,136.6483,0.0017675999999999,0.00027937,0.0,0 STARLINK-3908,1 52491U 22049AS  22228.58334491  .00027937  00000-0  17676-2 0  9998,2 52491  53.2170 130.0008 0001606  50.1933 136.6483 15.08816256  1304,6917.953,95.439,540.929,538.707,0.0
52491.0,STARLINK-3908,PAYLOAD,2022-08-16 22:00:00,15.08845636,0.0001708,53.2172,128.5056,48.9507,149.4681,-0.0011367,-0.00018336,0.0,0 STARLINK-3908,1 52491U 22049AS  22228.91667824 -.00018336  00000-0 -11367-2 0  9990,2 52491  53.2172 128.5056 0001708  48.9507 149.4681 15.08845636 16173,6917.863,95.437,540.91,538.547,0.0
52491.0,STARLINK-3908,PAYLOAD,2022-08-17 14:00:01,15.08834021,0.0001639,53.2168,125.5116,53.0109,168.602,0.0011173,0.00017536,0.0,0 STARLINK-3908,1 52491U 22049AS  22229.58334491  .00017536  00000-0  11173-2 0  9999,2 52491  53.2168 125.5116 0001639  53.0109 168.6020 15.08834021 16277,6917.899,95.438,540.898,538.63,0.0
52491.0,STARLINK-3908,PAYLOAD,2022-08-17 16:00:00,15.08844884,0.0001654,53.217,125.1374,55.0691,259.4396,-0.00021399,-3.693e-05,0.0,0 STARLINK-3908,1 52491U 22049AS  22229.66667824 -.00003693  00000-0 -21399-3 0  9990,2 52491  53.2170 125.1374 0001654  55.0691 259.4396 15.08844884  1308,6917.865,95.437,540.875,538.586,0.0
52491.0,STARLINK-3908,PAYLOAD,2022-08-18 08:00:01,15.08851208,0.0001849,53.2167,122.1483,49.3308,288.3546,-0.00213,-0.00034038,0.0,0 STARLINK-3908,1 52491U 22049AS  22230.33334491 -.00034038  00000-0 -21300-2 0  9995,2 52491  53.2167 122.1483 0001849  49.3308 288.3546 15.08851208 16390,6917.846,95.437,540.99,538.432,0.0
52491.0,STARLINK-3908,PAYLOAD,2022-08-18 14:00:01,15.08823699,0.0001739,53.2165,121.0224,57.6521,198.7535,0.0033078,0.00052726,0.0,0 STARLINK-3908,1 52491U 22049AS  22230.58334491  .00052726  00000-0  33078-2 0  9999,2 52491  53.2165 121.0224 0001739  57.6521 198.7535 15.08823699  1306,6917.93,95.439,540.998,538.592,0.0
52491.0,STARLINK-3908,PAYLOAD,2022-08-18 22:00:00,15.08865651,0.0001821999999999,53.2165,119.5275,55.028,212.9757,-0.0010328,-0.00016699,0.0,0 STARLINK-3908,1 52491U 22049AS  22230.91667824 -.00016699  00000-0 -10328-2 0  9999,2 52491  53.2165 119.5275 0001822  55.0280 212.9757 15.08865651 16485,6917.802,95.436,540.927,538.4069999999998,0.0
52491.0,STARLINK-3908,PAYLOAD,2022-08-19 14:00:01,15.08799609,0.0001548,53.2162,116.5333,55.2525,235.9884,0.0029519999999999,0.00046954,0.0,0 STARLINK-3908,1 52491U 22049AS  22231.58334491  .00046954  00000-0  29520-2 0  9993,2 52491  53.2162 116.5333 0001548  55.2525 235.9884 15.08799609  1303,6918.004,95.44,540.94,538.798,0.0
52491.0,STARLINK-3908,PAYLOAD,2022-08-19 22:00:00,15.08825625,0.0001715,53.2163,115.0385,51.663,251.1348,-0.00083478,-0.00013544,0.0,0 STARLINK-3908,1 52491U 22049AS  22231.91667824 -.00013544  00000-0 -83478-3 0  9993,2 52491  53.2163 115.0385 0001715  51.6630 251.1348 15.08825625  1301,6917.924,95.438,540.976,538.6030000000002,0.0
52491.0,STARLINK-3908,PAYLOAD,2022-08-20 08:00:01,15.0883612,0.0001761,53.2162,113.1675,52.4226,354.8377,-0.0037573999999999,-0.00059587,0.0,0 STARLINK-3908,1 52491U 22049AS  22232.33334491 -.00059587  00000-0 -37574-2 0  9993,2 52491  53.2162 113.1675 0001761  52.4226 354.8377 15.08836120 16695,6917.892,95.438,540.975,538.539,0.0
52491.0,STARLINK-3908,PAYLOAD,2022-08-20 14:00:01,15.08786233,0.0001727,53.2162,112.0444,58.55,267.3998,0.0033549,0.00053432,0.0,0 STARLINK-3908,1 52491U 22049AS  22232.58334491  .00053432  00000-0  33549-2 0  9999,2 52491  53.2162 112.0444 0001727  58.5500 267.3998 15.08786233  1309,6918.045,95.441,541.104,538.715,0.0
52491.0,STARLINK-3908,PAYLOAD,2022-08-20 22:00:00,15.08819047,0.0001895,53.2164,110.5497,54.4592,283.04,-0.00075445,-0.00012268,0.0,0 STARLINK-3908,1 52491U 22049AS  22232.91667824 -.00012268  00000-0 -75445-3 0  9991,2 52491  53.2164 110.5497 0001895  54.4592 283.0400 15.08819047 16785,6917.944,95.439,541.12,538.498,0.0
52491.0,STARLINK-3908,PAYLOAD,2022-08-21 14:00:01,15.08804576,0.0001821999999999,53.2166,107.5555,59.3236,301.3144,0.0030503,0.00048545,0.0,0 STARLINK-3908,1 52491U 22049AS  22233.58334491  .00048545  00000-0  30503-2 0  9996,2 52491  53.2166 107.5555 0001822  59.3236 301.3144 15.08804576  1310,6917.989000000001,95.44,541.114,538.5930000000002,0.0
52491.0,STARLINK-3908,PAYLOAD,2022-08-21 22:00:00,15.08835404,0.0002,53.2168,106.0609,55.0894,317.1213,-0.00080648,-0.00013099,0.0,0 STARLINK-3908,1 52491U 22049AS  22233.91667824 -.00013099  00000-0 -80648-3 0  9996,2 52491  53.2168 106.0609 0002000  55.0894 317.1213 15.08835404  1303,6917.894,95.438,541.143,538.376,0.0
52491.0,STARLINK-3908,PAYLOAD,2022-08-22 06:00:00,15.08851019,0.0001976999999999,53.2169,104.5642,53.4251,330.365,-0.001485,-0.00023852,0.0,0 STARLINK-3908,1 52491U 22049AS  22234.25001157 -.00023852  00000-0 -14850-2 0  9994,2 52491  53.2169 104.5642 0001977  53.4251 330.3650 15.08851019 16987,6917.847,95.437,541.0790000000002,538.344,0.0
52491.0,STARLINK-3908,PAYLOAD,2022-08-22 12:00:00,15.08816035,0.0001889,53.2172,103.4408,58.9472,243.5507,0.0031205,0.00049693,0.0,0 STARLINK-3908,1 52491U 22049AS  22234.50001157  .00049693  00000-0  31205-2 0  9994,2 52491  53.2172 103.4408 0001889  58.9472 243.5507 15.08816035  1301,6917.954000000002,95.439,541.125,538.512,0.0
52491.0,STARLINK-3908,PAYLOAD,2022-08-22 22:00:00,15.08850945,0.0002083,53.2173,101.572,56.0654,350.9215,-0.00073472,-0.00011966,0.0,0 STARLINK-3908,1 52491U 22049AS  22234.91667824 -.00011966  00000-0 -73472-3 0  9995,2 52491  53.2173 101.5720 0002083  56.0654 350.9215 15.08850945 17085,6917.847,95.437,541.153,538.271,0.0
52491.0,STARLINK-3908,PAYLOAD,2022-08-23 14:00:01,15.08853935,0.0001931,53.2177,98.5776,61.2673,8.9313,-0.00059032,-9.675e-05,0.0,0 STARLINK-3908,1 52491U 22049AS  22235.58334491 -.00009675  00000-0 -59032-3 0  9990,2 52491  53.2177  98.5776 0001931  61.2673   8.9313 15.08853935  1304,6917.8380000000025,95.437,541.039,538.367,0.0
52491.0,STARLINK-3908,PAYLOAD,2022-08-23 22:00:01,15.08833221,0.0002019,53.2177,97.083,55.6817,26.1921,-0.00060431,-9.891e-05,0.0,0 STARLINK-3908,1 52491U 22049AS  22235.91668981 -.00009891  00000-0 -60431-3 0  9996,2 52491  53.2177  97.0830 0002019  55.6817  26.1921 15.08833221 17236,6917.901,95.438,541.163,538.369,0.0
